ONEWEB-0474             
1 51654U 22012AJ  24094.51379068  .00000386  00000+0  10679-2 0  9997
2 51654  87.8986 196.1637 0001627 103.5138 256.6171 13.10392310103914
ONEWEB-0475             
1 51655U 22012AK  24094.45101864  .00000064  00000+0  13169-3 0  9999
2 51655  87.9238 166.0065 0001661  93.8108 266.3214 13.17647024107713
ONEWEB-0490             
1 54113U 22138A   24094.49095481  .00000076  00000+0  15624-3 0  9992
2 54113  87.9092 105.1403 0001789  90.8646 269.2692 13.19724277 71561
ONEWEB-0495             
1 54115U 22138C   24094.49410099 -.00000267  00000+0 -69979-3 0  9996
2 54115  87.9100 105.1493 0001273  79.9162 280.2114 13.19728143 71558
ONEWEB-0497             
1 54116U 22138D   24094.50675088  .00000104  00000+0  22634-3 0  9995
2 54116  87.9093 105.1390 0001794  90.9239 269.2099 13.19723879 70674
ONEWEB-0499             
1 54117U 22138E   24094.48939586  .00000058  00000+0  11227-3 0  9993
2 54117  87.9097 105.1405 0002071  75.0470 285.0892 13.19725356 70686
ONEWEB-0500             
1 54118U 22138F   24094.49252912  .00000049  00000+0  90371-4 0  9994
2 54118  87.9094 105.1381 0001838  93.0263 267.1080 13.19723183 70694
